NORAD_CAT_ID,OBJECT_NAME,OBJECT_TYPE,EPOCH,MEAN_MOTION,ECCENTRICITY,INCLINATION,RA_OF_ASC_NODE,ARG_OF_PERICENTER,MEAN_ANOMALY,BSTAR,MEAN_MOTION_DOT,MEAN_MOTION_DDOT,TLE_LINE0,TLE_LINE1,TLE_LINE2,SEMIMAJOR_AXIS,PERIOD,APOGEE,PERIGEE,DECAYED
53792.0,STARLINK-4739,PAYLOAD,2024-03-20 00:00:00,15.07220013,0.000112,53.2143,264.7621,71.2825,154.0392,-0.0024461,-0.00037338,0.0,0 STARLINK-4739,1 53792U 22111V   24080.00001157 -.00037338  00000-0 -24461-2 0  9996,2 53792  53.2143 264.7621 0001120  71.2825 154.0392 15.07220013 84235,6922.836,95.54,545.477,543.926,0.0
53792.0,STARLINK-4739,PAYLOAD,2024-03-20 14:00:01,15.0720244,0.0001147,53.2144,262.1485,77.5235,74.6289,0.00016163,2.178e-05,0.0,0 STARLINK-4739,1 53792U 22111V   24080.58334491  .00002178  00000-0  16163-3 0  9992,2 53792  53.2144 262.1485 0001147  77.5235  74.6289 15.07202440  5878,6922.89,95.541,545.549,543.961,0.0
53792.0,STARLINK-4739,PAYLOAD,2024-03-20 22:00:00,15.0718347,0.0001199,53.2143,260.6574,64.7393,97.0363,0.0018665,0.00028225,0.0,0 STARLINK-4739,1 53792U 22111V   24080.91667824  .00028225  00000-0  18665-2 0  9997,2 53792  53.2143 260.6574 0001199  64.7393  97.0363 15.07183470 84374,6922.948,95.542,545.643,543.983,0.0
53792.0,STARLINK-4739,PAYLOAD,2024-03-21 14:00:01,15.07221855,0.0001163,53.2143,257.6706,76.4591,104.5592,9.2475e-05,1.125e-05,0.0,0 STARLINK-4739,1 53792U 22111V   24081.58334491  .00001125  00000-0  92475-4 0  9995,2 53792  53.2143 257.6706 0001163  76.4591 104.5592 15.07221855  5728,6922.831,95.54,545.501,543.891,0.0
53792.0,STARLINK-4739,PAYLOAD,2024-03-21 22:00:01,15.07211853,0.0001244,53.2143,256.1792,66.9743,123.752,-0.00083653,-0.00012996,0.0,0 STARLINK-4739,1 53792U 22111V   24081.91668981 -.00012996  00000-0 -83653-3 0  9993,2 53792  53.2143 256.1792 0001244  66.9743 123.7520 15.07211853 84526,6922.861,95.541,545.588,543.865,0.0
53792.0,STARLINK-4739,PAYLOAD,2024-03-22 11:28:52,15.07211467,0.0001154,53.2149,253.6624,74.5111,285.6007,0.00025172,3.551e-05,0.0,0 STARLINK-4739,1 53792U 22111V   24082.47838336  .00003551  00000-0  25172-3 0  9995,2 53792  53.2149 253.6624 0001154  74.5111 285.6007 15.07211467 84611,6922.863,95.541,545.527,543.929,0.0
53792.0,STARLINK-4739,PAYLOAD,2024-03-22 14:39:51,15.0720939,0.000116,53.2153,253.0675,78.2318,281.8804,0.00021168,2.941e-05,0.0,0 STARLINK-4739,1 53792U 22111V   24082.61100807  .00002941  00000-0  21168-3 0  9999,2 53792  53.2153 253.0675 0001160  78.2318 281.8804 15.07209390 85439,6922.869,95.541,545.537,543.931,0.0
53792.0,STARLINK-4739,PAYLOAD,2024-03-22 17:50:49,15.07209925,0.0001159,53.2155,252.4738,77.5397,282.5724,0.00020575,2.85e-05,0.0,0 STARLINK-4739,1 53792U 22111V   24082.74363149  .00002850  00000-0  20575-3 0  9993,2 53792  53.2155 252.4738 0001159  77.5397 282.5724 15.07209925 85456,6922.867,95.541,545.535,543.93,0.0
53792.0,STARLINK-4739,PAYLOAD,2024-03-23 11:21:12,15.07204741,0.0001231,53.2156,249.2075,78.3644,281.7486,6.448e-05,6.98e-06,0.0,0 STARLINK-4739,1 53792U 22111V   24083.47306549  .00000698  00000-0  64480-4 0  9997,2 53792  53.2156 249.2075 0001231  78.3644 281.7486 15.07204741 84760,6922.883,95.541,545.6,543.896,0.0
53792.0,STARLINK-4739,PAYLOAD,2024-03-23 17:43:10,15.07188267,0.0001136,53.2175,248.0183,88.649,271.4632,0.00019287,2.652e-05,0.0,0 STARLINK-4739,1 53792U 22111V   24083.73832163  .00002652  00000-0  19287-3 0  9998,2 53792  53.2175 248.0183 0001136  88.6490 271.4632 15.07188267 84803,6922.934,95.542,545.585,544.012,0.0
53792.0,STARLINK-4739,PAYLOAD,2024-03-24 03:16:05,15.07213576,0.0001267,53.218,246.2389,88.3849,271.7287,6.3528e-05,6.84e-06,0.0,0 STARLINK-4739,1 53792U 22111V   24084.13617758  .00000684  00000-0  63528-4 0  9995,2 53792  53.2180 246.2389 0001267  88.3849 271.7287 15.07213576 84864,6922.856,95.541,545.598,543.844,0.0
53792.0,STARLINK-4739,PAYLOAD,2024-03-24 14:24:32,15.07196426,0.0001339,53.2186,244.1614,100.6095,259.5048,-1.3989e-05,-4.96e-06,0.0,0 STARLINK-4739,1 53792U 22111V   24084.60037568 -.00000496  00000-0 -13989-4 0  9991,2 53792  53.2186 244.1614 0001339 100.6095 259.5048 15.07196426 85739,6922.909,95.542,545.701,543.847,0.0
53792.0,STARLINK-4739,PAYLOAD,2024-03-24 20:46:28,15.0721149,0.0001138,53.2173,242.97,82.4083,277.7038,9.8137e-05,1.211e-05,0.0,0 STARLINK-4739,1 53792U 22111V   24084.86561290  .00001211  00000-0  98137-4 0  9995,2 53792  53.2173 242.9700 0001138  82.4083 277.7038 15.07211490 84973,6922.863,95.541,545.515,543.94,0.0
53792.0,STARLINK-4739,PAYLOAD,2024-03-25 17:27:50,15.07207502,0.0001229,53.2171,239.1121,93.602,266.5112,0.00020771,2.88e-05,0.0,0 STARLINK-4739,1 53792U 22111V   24085.72766659  .00002880  00000-0  20771-3 0  9998,2 53792  53.2171 239.1121 0001229  93.6020 266.5112 15.07207502 85904,6922.875,95.541,545.591,543.889,0.0
53792.0,STARLINK-4739,PAYLOAD,2024-03-26 14:09:13,15.07186417,0.000102,53.217,235.2539,82.8864,277.2244,3.6321e-05,2.69e-06,0.0,0 STARLINK-4739,1 53792U 22111V   24086.58974520  .00000269  00000-0  36321-4 0  9999,2 53792  53.2170 235.2539 0001020  82.8864 277.2244 15.07186417 86039,6922.939,95.542,545.51,544.098,0.0
53792.0,STARLINK-4739,PAYLOAD,2024-03-26 18:55:42,15.07193086,0.0001472,53.2171,234.3594,71.8842,288.231,-1.8339e-05,-5.62e-06,0.0,0 STARLINK-4739,1 53792U 22111V   24086.78868127 -.00000562  00000-0 -18339-4 0  9993,2 53792  53.2171 234.3594 0001472  71.8842 288.2310 15.07193086 85266,6922.919,95.542,545.803,543.765,0.0
53792.0,STARLINK-4739,PAYLOAD,2024-03-27 02:53:07,15.07206925,0.0001264,53.2169,232.8744,84.363,275.7506,1.6019e-05,-3.9e-07,0.0,0 STARLINK-4739,1 53792U 22111V   24087.12023047 -.00000039  00000-0  16019-4 0  9997,2 53792  53.2169 232.8744 0001264  84.3630 275.7506 15.07206925 85317,6922.877,95.541,545.617,543.867,0.0
53792.0,STARLINK-4739,PAYLOAD,2024-03-27 14:01:33,15.07204648,0.0001389,53.2159,230.7993,83.1945,276.9204,4.5479e-05,4.09e-06,0.0,0 STARLINK-4739,1 53792U 22111V   24087.58441370  .00000409  00000-0  45479-4 0  9992,2 53792  53.2159 230.7993 0001389  83.1945 276.9204 15.07204648 86187,6922.884,95.541,545.71,543.787,0.0
53792.0,STARLINK-4739,PAYLOAD,2024-03-27 18:48:00,15.07215789,0.0001317,53.2168,229.9072,81.375,278.739,0.00011767,1.509e-05,0.0,0 STARLINK-4739,1 53792U 22111V   24087.78333993  .00001509  00000-0  11767-3 0  9999,2 53792  53.2168 229.9072 0001317  81.3750 278.7390 15.07215789 85419,6922.849,95.54,545.626,543.803,0.0
53792.0,STARLINK-4739,PAYLOAD,2024-03-28 09:07:25,15.07210196,0.0002335,53.2166,227.2344,90.9081,269.2178,0.00019378,2.668e-05,0.0,0 STARLINK-4739,1 53792U 22111V   24088.38015424  .00002668  00000-0  19378-3 0  9995,2 53792  53.2166 227.2344 0002335  90.9081 269.2178 15.07210196 85500,6922.867,95.541,546.348,543.115,0.0
53792.0,STARLINK-4739,PAYLOAD,2024-03-28 15:29:23,15.07202059,0.0001535,53.216,226.0471,97.0521,263.0645,0.00011613,1.485e-05,0.0,0 STARLINK-4739,1 53792U 22111V   24088.64540633  .00001485  00000-0  11613-3 0  9999,2 53792  53.2160 226.0471 0001535  97.0521 263.0645 15.07202059 85544,6922.891,95.541,545.819,543.694,0.0
53792.0,STARLINK-4739,PAYLOAD,2024-03-29 12:10:45,15.07206099,0.000147,53.2175,222.1885,83.074,277.0419,8.1781e-05,9.62e-06,0.0,0 STARLINK-4739,1 53792U 22111V   24089.50747373  .00000962  00000-0  81781-4 0  9998,2 53792  53.2175 222.1885 0001470  83.0740 277.0419 15.07206099 85678,6922.879,95.541,545.762,543.726,0.0
53792.0,STARLINK-4739,PAYLOAD,2024-03-29 15:21:44,15.07209028,0.0001263,53.217,221.5943,84.3784,275.7352,0.00014526,1.929e-05,0.0,0 STARLINK-4739,1 53792U 22111V   24089.64009375  .00001929  00000-0  14526-3 0  9992,2 53792  53.2170 221.5943 0001263  84.3784 275.7352 15.07209028 86490,6922.87,95.541,545.609,543.861,0.0
53792.0,STARLINK-4739,PAYLOAD,2024-03-30 13:38:34,15.07213445,0.0001485,53.216,217.4345,94.9682,265.1479,0.00018586,2.547e-05,0.0,0 STARLINK-4739,1 53792U 22111V   24090.56845302  .00002547  00000-0  18586-3 0  9990,2 53792  53.2160 217.4345 0001485  94.9682 265.1479 15.07213445 85837,6922.857,95.541,545.75,543.694,0.0
53792.0,STARLINK-4739,PAYLOAD,2024-03-30 15:14:03,15.07216012,0.0001636,53.2166,217.1379,92.297,267.8209,0.00018541,2.541e-05,0.0,0 STARLINK-4739,1 53792U 22111V   24090.63476376  .00002541  00000-0  18541-3 0  9994,2 53792  53.2166 217.1379 0001636  92.2970 267.8209 15.07216012 86649,6922.849,95.54,545.846,543.581,0.0
53792.0,STARLINK-4739,PAYLOAD,2024-03-31 00:47:03,15.07090603,0.0001497,53.2186,215.3577,55.106,305.0072,0.0023014,0.00034813,0.0,0 STARLINK-4739,1 53792U 22111V   24091.03267765  .00034813  00000-0  23014-2 0  9996,2 53792  53.2186 215.3577 0001497  55.1060 305.0072 15.07090603 85901,6923.233,95.548,546.134,544.061,0.0
53792.0,STARLINK-4739,PAYLOAD,2024-03-31 13:30:54,15.07216707,0.0001592,53.2198,212.9833,106.2815,253.8352,1.6041e-05,-3.9e-07,0.0,0 STARLINK-4739,1 53792U 22111V   24091.56313300 -.00000039  00000-0  16041-4 0  9999,2 53792  53.2198 212.9833 0001592 106.2815 253.8352 15.07216707 85988,6922.847,95.54,545.814,543.609,0.0
53792.0,STARLINK-4739,PAYLOAD,2024-03-31 15:06:23,15.07219582,0.0001356,53.2191,212.6886,95.5526,264.562,4.3316e-05,3.76e-06,0.0,0 STARLINK-4739,1 53792U 22111V   24091.62944220  .00000376  00000-0  43316-4 0  9995,2 53792  53.2191 212.6886 0001356  95.5526 264.5620 15.07219582 86794,6922.838,95.54,545.642,543.764,0.0
53792.0,STARLINK-4739,PAYLOAD,2024-04-01 00:39:18,15.07230432,0.0001234,53.2185,210.9042,91.692,268.4213,0.00011184,1.421e-05,0.0,0 STARLINK-4739,1 53792U 22111V   24092.02729990  .00001421  00000-0  11184-3 0  9994,2 53792  53.2185 210.9042 0001234  91.6920 268.4213 15.07230432 86059,6922.805,95.539,545.524,543.815,0.0
53792.0,STARLINK-4739,PAYLOAD,2024-04-01 11:47:46,15.0720089,0.0001517,53.2202,208.831,100.405,259.7113,-0.00012721,-2.219e-05,0.0,0 STARLINK-4739,1 53792U 22111V   24092.49150713 -.00002219  00000-0 -12721-3 0  9992,2 53792  53.2202 208.8310 0001517 100.4050 259.7113 15.07200890 86125,6922.895,95.541,545.81,543.71,0.0
